VIASAT-3                
1 56370U 23060A   25286.89800669 -.00000199  00000+0  00000+0 0  9999
2 56370   0.0202 259.6438 0000112 202.8092 154.6333  1.00272168  8966
ARCTURUS                
1 56371U 23060B   25286.91125883 -.00000181  00000+0  00000+0 0  9992
2 56371   2.1367  83.0216 0000075 126.1727 119.4806  1.00273141  8984
GS-1                    
1 56372U 23060C   25286.85761983 -.00000029  00000+0  00000+0 0  9994
2 56372   2.0867  82.7165 0002867 250.3162  65.3411  1.00299973  5060
STARLINK-6156           
1 56374U 23061A   25286.98269596 -.00000744  00000+0 -40019-4 0  9998
2 56374  43.0037 274.8465 0001212 264.9682  95.1022 15.02534229135789
STARLINK-6158           
1 56375U 23061B   25286.24592011 -.00001828  00000+0 -12037-3 0  9991
2 56375  43.0022 278.7756 0001163 272.8217  87.2492 15.02516271134573
STARLINK-6188           
1 56376U 23061C   25286.69013867  .00001713  00000+0  14179-3 0  9998
2 56376  43.0054 276.0938 0001337 283.6039  76.4655 15.02554972134646
STARLINK-6189           
1 56377U 23061D   25286.97381507  .00000483  00000+0  50826-4 0  9992
2 56377  43.0036 274.7791 0001120 268.9830  91.0884 15.02538131134684
STARLINK-6191           
1 56378U 23061E   25286.24700379  .00000017  00000+0  16348-4 0  9999
2 56378  43.0021 278.7772 0000873 270.9880  89.0862 15.02534186134571
STARLINK-6157           
1 56379U 23061F   25286.96271879 -.00000091  00000+0  83095-5 0  9994
2 56379  43.0050 274.6957 0001108 264.1426  95.9290 15.02533438135781
STARLINK-6159           
1 56381U 23061H   25286.70346314  .00000277  00000+0  35598-4 0  9995
2 56381  43.0023 276.1892 0000846 271.8819  88.1926 15.02540091134645
STARLINK-6160           
1 56382U 23061J   25286.69125435 -.00000640  00000+0 -32282-4 0  9996
2 56382  43.0047 276.0940 0001117 272.2365  87.8349 15.02538362134641
STARLINK-6166           
1 56383U 23061K   25286.29460011 -.00004334  00000+0 -30582-3 0  9999
2 56383  43.0051 278.2784 0001129 258.3280 101.7436 15.02551776134581
STARLINK-6153           
1 56384U 23061L   25286.28461998  .00000001  00000+0  15147-4 0  9990
2 56384  43.0047 278.2034 0001230 268.5119  91.5582 15.02532526134582
STARLINK-6173           
1 56385U 23061M   25286.95272498  .00000886  00000+0  80676-4 0  9990
2 56385  43.0036 274.6180 0001286 272.6721  87.3974 15.02533986134689
STARLINK-5836           
1 56386U 23061N   25286.27796476 -.00000651  00000+0 -33110-4 0  9996
2 56386  43.0026 278.1481 0001919 275.4665  84.5958 15.02539705134588
STARLINK-6178           
1 56387U 23061P   25286.66683907  .00000219  00000+0  31311-4 0  9993
2 56387  43.0034 275.9117 0001145 270.4585  89.6126 15.02535811134640
STARLINK-6176           
1 56388U 23061Q   25286.97271366  .00001566  00000+0  13100-3 0  9991
2 56388  43.0049 274.7544 0001244 273.8277  86.2423 15.02537392134686
STARLINK-6145           
1 56389U 23061R   25286.94606891 -.00000965  00000+0 -56380-4 0  9996
2 56389  43.0028 274.5637 0001218 265.1382  94.9321 15.02542930134684
STARLINK-6298           
1 56391U 23061T   25286.93940773  .00000457  00000+0  48938-4 0  9992
2 56391  43.0054 274.5138 0001278 275.2143  84.8554 15.02535771134686
STARLINK-6301           
1 56392U 23061U   25286.94201541  .00000112  00000+0  23359-4 0  9995
2 56392  43.0006 262.3975 0000959 243.7858 116.2886 15.02528404134825
STARLINK-6303           
1 56393U 23061V   25286.27129894  .00000096  00000+0  22190-4 0  9995
2 56393  43.0035 278.1007 0001312 265.6474  94.4218 15.02536120134583
STARLINK-6305           
1 56394U 23061W   25286.66501074  .00000303  00000+0  37521-4 0  9998
2 56394  43.0051 263.7652 0000980 260.1911  99.8821 15.02527704134783
STARLINK-6273           
1 56395U 23061X   25286.66832096  .00000649  00000+0  63107-4 0  9992
2 56395  43.0042 263.7872 0001082 274.0428  86.0290 15.02538893135497
STARLINK-6302           
1 56396U 23061Y   25286.65944769 -.00000424  00000+0 -16294-4 0  9991
2 56396  43.0014 263.7224 0000785 259.5132 100.5622 15.02531981129919
STARLINK-6271           
1 56397U 23061Z   25286.93645570  .00000725  00000+0  68731-4 0  9996
2 56397  43.0025 262.3602 0001044 267.3899  92.6824 15.02535681134825
STARLINK-6288           
1 56398U 23061AA  25286.98850431 -.00000537  00000+0 -24665-4 0  9997
2 56398  43.0024 261.8925 0000878 277.8212  82.2531 15.02538172134835
STARLINK-6277           
1 56399U 23061AB  25286.66166481  .00000868  00000+0  79291-4 0  9998
2 56399  43.0038 263.7390 0001139 268.0006  92.0706 15.02532248134787
STARLINK-6267           
1 56400U 23061AC  25286.98295263  .00000312  00000+0  38183-4 0  9996
2 56400  43.0067 261.8496 0001273 266.6472  93.4225 15.02537260134834
STARLINK-6256           
1 56401U 23061AD  25286.92450541  .00000026  00000+0  17010-4 0  9991
2 56401  43.0032 249.2591 0000915 274.3485  85.7253 15.02534744134979
STARLINK-6284           
1 56403U 23061AF  25286.98517217  .00000075  00000+0  20642-4 0  9992
2 56403  43.0020 261.8514 0001353 267.4439  92.6249 15.02534440134832
