OBJECT_NAME,OBJECT_ID,EPOCH,MEAN_MOTION,ECCENTRICITY,INCLINATION,RA_OF_ASC_NODE,ARG_OF_PERICENTER,MEAN_ANOMALY,EPHEMERIS_TYPE,CLASSIFICATION_TYPE,NORAD_CAT_ID,ELEMENT_SET_NO,REV_AT_EPOCH,BSTAR,MEAN_MOTION_DOT,MEAN_MOTION_DDOT
VIASAT-3,2023-060A,2025-10-13T21:33:07.778016,1.00272168,.00001126,0.0202,259.6438,202.8092,154.6333,0,U,56370,999,896,0,-.199E-5,0
ARCTURUS,2023-060B,2025-10-13T21:52:12.762912,1.00273141,.00000759,2.1367,83.0216,126.1727,119.4806,0,U,56371,999,898,0,-.181E-5,0
GS-1,2023-060C,2025-10-13T20:34:58.353312,1.00299973,.00028673,2.0867,82.7165,250.3162,65.3411,0,U,56372,999,506,0,-.29E-6,0
STARLINK-6156,2023-061A,2025-10-13T23:35:04.930944,15.02534229,.00012125,43.0037,274.8465,264.9682,95.1022,0,U,56374,999,13578,-.40018766E-4,-.744E-5,0
STARLINK-6158,2023-061B,2025-10-13T05:54:07.497504,15.02516271,.00011637,43.0022,278.7756,272.8217,87.2492,0,U,56375,999,13457,-.1203697E-3,-.1828E-4,0
STARLINK-6188,2023-061C,2025-10-13T16:33:47.981088,15.02554972,.00013379,43.0054,276.0938,283.6039,76.4655,0,U,56376,999,13464,.14179248E-3,.1713E-4,0
STARLINK-6189,2023-061D,2025-10-13T23:22:17.622048,15.02538131,.00011205,43.0036,274.7791,268.9830,91.0884,0,U,56377,999,13468,.50825862E-4,.483E-5,0
STARLINK-6191,2023-061E,2025-10-13T05:55:41.127456,15.02534186,.00008739,43.0021,278.7772,270.9880,89.0862,0,U,56378,999,13457,.16347979E-4,.17E-6,0
STARLINK-6157,2023-061F,2025-10-13T23:06:18.903456,15.02533438,.00011083,43.0050,274.6957,264.1426,95.9290,0,U,56379,999,13578,.8309541E-5,-.91E-6,0
STARLINK-6159,2023-061H,2025-10-13T16:52:59.215296,15.02540091,.00008466,43.0023,276.1892,271.8819,88.1926,0,U,56381,999,13464,.35598125E-4,.277E-5,0
STARLINK-6160,2023-061J,2025-10-13T16:35:24.375840,15.02538362,.00011171,43.0047,276.0940,272.2365,87.8349,0,U,56382,999,13464,-.32281882E-4,-.64E-5,0
STARLINK-6166,2023-061K,2025-10-13T07:04:13.449504,15.02551776,.00011297,43.0051,278.2784,258.3280,101.7436,0,U,56383,999,13458,-.30582116E-3,-.4334E-4,0
STARLINK-6153,2023-061L,2025-10-13T06:49:51.166272,15.02532526,.00012301,43.0047,278.2034,268.5119,91.5582,0,U,56384,999,13458,.1514664E-4,.1E-7,0
STARLINK-6173,2023-061M,2025-10-13T22:51:55.438272,15.02533986,.00012861,43.0036,274.6180,272.6721,87.3974,0,U,56385,999,13468,.80675809E-4,.886E-5,0
STARLINK-5836,2023-061N,2025-10-13T06:40:16.155264,15.02539705,.00019197,43.0026,278.1481,275.4665,84.5958,0,U,56386,999,13458,-.33110312E-4,-.651E-5,0
STARLINK-6178,2023-061P,2025-10-13T16:00:14.895648,15.02535811,.00011453,43.0034,275.9117,270.4585,89.6126,0,U,56387,999,13464,.31311494E-4,.219E-5,0
STARLINK-6176,2023-061Q,2025-10-13T23:20:42.460224,15.02537392,.00012449,43.0049,274.7544,273.8277,86.2423,0,U,56388,999,13468,.13099616E-3,.1566E-4,0
STARLINK-6145,2023-061R,2025-10-13T22:42:20.353824,15.02542930,.00012188,43.0028,274.5637,265.1382,94.9321,0,U,56389,999,13468,-.56379574E-4,-.965E-5,0
STARLINK-6298,2023-061T,2025-10-13T22:32:44.827872,15.02535771,.00012786,43.0054,274.5138,275.2143,84.8554,0,U,56391,999,13468,.48937925E-4,.457E-5,0
STARLINK-6301,2023-061U,2025-10-13T22:36:30.131424,15.02528404,.00009592,43.0006,262.3975,243.7858,116.2886,0,U,56392,999,13482,.23359284E-4,.112E-5,0
STARLINK-6303,2023-061V,2025-10-13T06:30:40.228416,15.02536120,.00013122,43.0035,278.1007,265.6474,94.4218,0,U,56393,999,13458,.22189984E-4,.96E-6,0
STARLINK-6305,2023-061W,2025-10-13T15:57:36.927936,15.02527704,.00009801,43.0051,263.7652,260.1911,99.8821,0,U,56394,999,13478,.37520522E-4,.303E-5,0
STARLINK-6273,2023-061X,2025-10-13T16:02:22.930944,15.02538893,.00010823,43.0042,263.7872,274.0428,86.0290,0,U,56395,999,13549,.63106845E-4,.649E-5,0
STARLINK-6302,2023-061Y,2025-10-13T15:49:36.280416,15.02531981,.00007851,43.0014,263.7224,259.5132,100.5622,0,U,56396,999,12991,-.16293846E-4,-.424E-5,0
STARLINK-6271,2023-061Z,2025-10-13T22:28:29.772480,15.02535681,.00010444,43.0025,262.3602,267.3899,92.6824,0,U,56397,999,13482,.6873089E-4,.725E-5,0
STARLINK-6288,2023-061AA,2025-10-13T23:43:26.772384,15.02538172,.00008785,43.0024,261.8925,277.8212,82.2531,0,U,56398,999,13483,-.24664846E-4,-.537E-5,0
STARLINK-6277,2023-061AB,2025-10-13T15:52:47.839584,15.02532248,.00011399,43.0038,263.7390,268.0006,92.0706,0,U,56399,999,13478,.79290578E-4,.868E-5,0
STARLINK-6267,2023-061AC,2025-10-13T23:35:27.107232,15.02537260,.0001273,43.0067,261.8496,266.6472,93.4225,0,U,56400,999,13483,.38183222E-4,.312E-5,0
STARLINK-6256,2023-061AD,2025-10-13T22:11:17.267424,15.02534744,.00009152,43.0032,249.2591,274.3485,85.7253,0,U,56401,999,13497,.17010083E-4,.26E-6,0
STARLINK-6284,2023-061AF,2025-10-13T23:38:38.875488,15.02534440,.00013535,43.0020,261.8514,267.4439,92.6249,0,U,56403,999,13483,.20642236E-4,.75E-6,0
